ONEWEB-0429             
1 50500U 21132AH  24190.87925270  .00000009  00000+0 -10567-4 0  9997
2 50500  87.9155 116.4669 0002144  73.2331 286.9036 13.18687737128231
ONEWEB-0432             
1 50502U 21132AK  24190.82391951  .00000066  00000+0  13349-3 0  9999
2 50502  87.9147 116.4746 0001561  77.9553 282.1754 13.18687621128225
ONEWEB-0440             
1 50503U 21132AL  24190.81127607  .00000092  00000+0  19982-3 0  9992
2 50503  87.9151 116.4663 0002637  77.9610 282.1818 13.18687278128216
ONEWEB-0450             
1 50504U 21132AM  24190.80508069  .00000051  00000+0  97206-4 0  9998
2 50504  87.9153 116.4959 0002064  66.9136 293.2213 13.18688384128246
ONEWEB-0410             
1 51622U 22012A   24190.88458591  .00000015  00000+0  55468-5 0  9995
2 51622  87.9180 146.8705 0002666 118.0146 242.1255 13.17642719120424
ONEWEB-0411             
1 51623U 22012B   24191.02628179  .00000647  00000+0  18157-2 0  9996
2 51623  87.8947 177.0810 0001476  72.8402 287.2887 13.10374089117824
